{
  "norad_id": 64467,
  "name": "COSMOS 2589",
  "history": [
    {
      "epoch": "2026-03-28T01:31:59.122272",
      "apogee_km": 38359.82778205537,
      "perigee_km": 33198.00040633881,
      "latitude_deg": -0.08041061817319003,
      "longitude_deg": -87.16764192003757,
      "semi_major_axis_km": 42157.05109419709,
      "eccentricity": 0.0612214,
      "inclination_deg": 0.1281,
      "raan_deg": 346.244,
      "arg_perigee_deg": 120.5154,
      "mean_anomaly_deg": 196.2203,
      "mean_motion_rev_day": 1.0029919
    }
  ]
}