COSMOS 2589             
1 64467U 25131A   26087.06387873 -.00000343  00000+0  00000+0 0  9993
2 64467   0.1281 346.2440 0612214 120.5154 196.2203  1.00299190  2745
